{
  "type": "FeatureCollection",
  "features": [
    {
      "type": "Feature",
      "properties": {
        "norad_id": 33835,
        "name": "COSMOS 2251 DEB",
        "group": "cosmos-2251-debris",
        "lat": -39.106786962162644,
        "lon": -91.90722912827378,
        "alt_km": 695.9317821615168,
        "timestamp": "2025-12-26T13:39:19.372687+00:00",
        "meta_object_name": "COSMOS 2251 DEB",
        "meta_object_id": "1993-036CC",
        "meta_epoch": "2025-12-26T06:20:30.703200",
        "meta_mean_motion": 14.62376099,
        "meta_eccentricity": 0.0053663,
        "meta_inclination": 74.0572,
        "meta_ra_of_asc_node": 75.2392,
        "meta_arg_of_pericenter": 124.7442,
        "meta_mean_anomaly": 291.9423,
        "meta_ephemeris_type": 0,
        "meta_classification_type": "U",
        "meta_norad_cat_id": 33835,
        "meta_element_set_no": 999,
        "meta_rev_at_epoch": 88987,
        "meta_bstar": 0.00088089199,
        "meta_mean_motion_dot": 4.519e-05,
        "meta_mean_motion_ddot": 0,
        "tle_line1": "1 33835U 93036CC  25360.26424425  .00004519  00000+0  88089-3 0  9992",
        "tle_line2": "2 33835  74.0572  75.2392 0053663 124.7442 291.9423 14.62376099889871"
      },
      "geometry": {
        "type": "Point",
        "coordinates": [
          -91.90722912827378,
          -39.106786962162644
        ]
      }
    },
    {
      "type": "Feature",
      "properties": {
        "norad_id": 33836,
        "name": "COSMOS 2251 DEB",
        "group": "cosmos-2251-debris",
        "lat": 28.96271064506147,
        "lon": -119.20140044829361,
        "alt_km": 617.5995925400221,
        "timestamp": "2025-12-26T13:39:19.372698+00:00",
        "meta_object_name": "COSMOS 2251 DEB",
        "meta_object_id": "1993-036CD",
        "meta_epoch": "2025-12-26T02:42:29.806272",
        "meta_mean_motion": 14.79839055,
        "meta_eccentricity": 0.00229361,
        "meta_inclination": 73.9961,
        "meta_ra_of_asc_node": 232.5585,
        "meta_arg_of_pericenter": 80.6181,
        "meta_mean_anomaly": 40.9444,
        "meta_ephemeris_type": 0,
        "meta_classification_type": "U",
        "meta_norad_cat_id": 33836,
        "meta_element_set_no": 999,
        "meta_rev_at_epoch": 64286,
        "meta_bstar": 0.0010373728,
        "meta_mean_motion_dot": 7.828e-05,
        "meta_mean_motion_ddot": 0,
        "tle_line1": "1 33836U 93036CD  25360.11284498  .00007828  00000+0  10374-2 0  9998",
        "tle_line2": "2 33836  73.9961 232.5585 0022936  80.6181  40.9444 14.79839055642868"
      },
      "geometry": {
        "type": "Point",
        "coordinates": [
          -119.20140044829361,
          28.96271064506147
        ]
      }
    },
    {
      "type": "Feature",
      "properties": {
        "norad_id": 33837,
        "name": "COSMOS 2251 DEB",
        "group": "cosmos-2251-debris",
        "lat": 6.108126653806787,
        "lon": 31.319372999537695,
        "alt_km": 736.7172585190137,
        "timestamp": "2025-12-26T13:39:19.372708+00:00",
        "meta_object_name": "COSMOS 2251 DEB",
        "meta_object_id": "1993-036CE",
        "meta_epoch": "2025-12-26T03:41:45.570624",
        "meta_mean_motion": 14.50728432,
        "meta_eccentricity": 0.00358619,
        "meta_inclination": 74.0122,
        "meta_ra_of_asc_node": 30.3422,
        "meta_arg_of_pericenter": 249.9415,
        "meta_mean_anomaly": 109.7884,
        "meta_ephemeris_type": 0,
        "meta_classification_type": "U",
        "meta_norad_cat_id": 33837,
        "meta_element_set_no": 999,
        "meta_rev_at_epoch": 88990,
        "meta_bstar": 0.00024128347,
        "meta_mean_motion_dot": 9.28e-06,
        "meta_mean_motion_ddot": 0,
        "tle_line1": "1 33837U 93036CE  25360.15399966  .00000928  00000+0  24128-3 0  9997",
        "tle_line2": "2 33837  74.0122  30.3422 0035861 249.9415 109.7884 14.50728432889900"
      },
      "geometry": {
        "type": "Point",
        "coordinates": [
          31.319372999537695,
          6.108126653806787
        ]
      }
    },
    {
      "type": "Feature",
      "properties": {
        "norad_id": 33838,
        "name": "COSMOS 2251 DEB",
        "group": "cosmos-2251-debris",
        "lat": 54.30448088432962,
        "lon": -79.56402228397947,
        "alt_km": 735.5615339379601,
        "timestamp": "2025-12-26T13:39:19.372718+00:00",
        "meta_object_name": "COSMOS 2251 DEB",
        "meta_object_id": "1993-036CF",
        "meta_epoch": "2025-12-25T19:25:45.372288",
        "meta_mean_motion": 14.48403087,
        "meta_eccentricity": 0.00274806,
        "meta_inclination": 74.0365,
        "meta_ra_of_asc_node": 125.3369,
        "meta_arg_of_pericenter": 245.478,
        "meta_mean_anomaly": 238.8832,
        "meta_ephemeris_type": 0,
        "meta_classification_type": "U",
        "meta_norad_cat_id": 33838,
        "meta_element_set_no": 999,
        "meta_rev_at_epoch": 88758,
        "meta_bstar": 0.00045471121,
        "meta_mean_motion_dot": 1.684e-05,
        "meta_mean_motion_ddot": 0,
        "tle_line1": "1 33838U 93036CF  25359.80955292  .00001684  00000+0  45471-3 0  9992",
        "tle_line2": "2 33838  74.0365 125.3369 0027480 245.4780 238.8832 14.48403087887581"
      },
      "geometry": {
        "type": "Point",
        "coordinates": [
          -79.56402228397947,
          54.30448088432962
        ]
      }
    },
    {
      "type": "Feature",
      "properties": {
        "norad_id": 33839,
        "name": "COSMOS 2251 DEB",
        "group": "cosmos-2251-debris",
        "lat": 49.937975045007555,
        "lon": -19.992582539286712,
        "alt_km": 731.0630332008359,
        "timestamp": "2025-12-26T13:39:19.372729+00:00",
        "meta_object_name": "COSMOS 2251 DEB",
        "meta_object_id": "1993-036CG",
        "meta_epoch": "2025-12-25T12:37:08.860800",
        "meta_mean_motion": 14.64450648,
        "meta_eccentricity": 0.0085374,
        "meta_inclination": 74.0373,
        "meta_ra_of_asc_node": 181.9107,
        "meta_arg_of_pericenter": 291.0826,
        "meta_mean_anomaly": 99.0176,
        "meta_ephemeris_type": 0,
        "meta_classification_type": "U",
        "meta_norad_cat_id": 33839,
        "meta_element_set_no": 999,
        "meta_rev_at_epoch": 89767,
        "meta_bstar": 0.00022045,
        "meta_mean_motion_dot": 1.196e-05,
        "meta_mean_motion_ddot": 0,
        "tle_line1": "1 33839U 93036CG  25359.52579700  .00001196  00000+0  22045-3 0  9998",
        "tle_line2": "2 33839  74.0373 181.9107 0085374 291.0826  99.0176 14.64450648897675"
      },
      "geometry": {
        "type": "Point",
        "coordinates": [
          -19.992582539286712,
          49.937975045007555
        ]
      }
    },
    {
      "type": "Feature",
      "properties": {
        "norad_id": 33841,
        "name": "COSMOS 2251 DEB",
        "group": "cosmos-2251-debris",
        "lat": -22.385237079415973,
        "lon": -114.18935369013403,
        "alt_km": 755.572537688,
        "timestamp": "2025-12-26T13:39:19.372740+00:00",
        "meta_object_name": "COSMOS 2251 DEB",
        "meta_object_id": "1993-036CJ",
        "meta_epoch": "2025-12-26T04:27:44.479872",
        "meta_mean_motion": 14.37878703,
        "meta_eccentricity": 0.00210649,
        "meta_inclination": 74.0372,
        "meta_ra_of_asc_node": 253.2859,
        "meta_arg_of_pericenter": 331.2395,
        "meta_mean_anomaly": 183.5381,
        "meta_ephemeris_type": 0,
        "meta_classification_type": "U",
        "meta_norad_cat_id": 33841,
        "meta_element_set_no": 999,
        "meta_rev_at_epoch": 88307,
        "meta_bstar": 0.00019795489,
        "meta_mean_motion_dot": 5.72e-06,
        "meta_mean_motion_ddot": 0,
        "tle_line1": "1 33841U 93036CJ  25360.18593148  .00000572  00000+0  19795-3 0  9992",
        "tle_line2": "2 33841  74.0372 253.2859 0021064 331.2395 183.5381 14.37878703883070"
      },
      "geometry": {
        "type": "Point",
        "coordinates": [
          -114.18935369013403,
          -22.385237079415973
        ]
      }
    },
    {
      "type": "Feature",
      "properties": {
        "norad_id": 33842,
        "name": "COSMOS 2251 DEB",
        "group": "cosmos-2251-debris",
        "lat": 62.78325554771323,
        "lon": -19.849137764628345,
        "alt_km": 776.7771045421641,
        "timestamp": "2025-12-26T13:39:19.372751+00:00",
        "meta_object_name": "COSMOS 2251 DEB",
        "meta_object_id": "1993-036CK",
        "meta_epoch": "2025-12-26T06:28:41.265984",
        "meta_mean_motion": 14.4272223,
        "meta_eccentricity": 0.00476095,
        "meta_inclination": 74.0315,
        "meta_ra_of_asc_node": 194.5372,
        "meta_arg_of_pericenter": 299.2023,
        "meta_mean_anomaly": 60.4375,
        "meta_ephemeris_type": 0,
        "meta_classification_type": "U",
        "meta_norad_cat_id": 33842,
        "meta_element_set_no": 999,
        "meta_rev_at_epoch": 88532,
        "meta_bstar": 0.0002681216,
        "meta_mean_motion_dot": 8.78e-06,
        "meta_mean_motion_ddot": 0,
        "tle_line1": "1 33842U 93036CK  25360.26992206  .00000878  00000+0  26812-3 0  9997",
        "tle_line2": "2 33842  74.0315 194.5372 0047609 299.2023  60.4375 14.42722230885324"
      },
      "geometry": {
        "type": "Point",
        "coordinates": [
          -19.849137764628345,
          62.78325554771323
        ]
      }
    }
  ]
}